<?xml version='1.0' encoding='utf-8'?>
<kml xmlns="http://www.opengis.net/kml/2.2"><Document><Placemark><name>3015 CLAIRMONT LLC</name><description>Parcel: 23 00 31 4 007 002.000
Address: 3015 CLAIRMONT AVE</description><Point><coordinates>-86.7840394,33.5111893,0</coordinates></Point></Placemark><Placemark><name>DEL CONTE PROPERTIES LLC</name><description>Parcel: 23 00 31 4 007 003.000
Address: 801 30TH ST S</description><Point><coordinates>-86.784187,33.511096,0</coordinates></Point></Placemark><Placemark><name>REVIBE PROPERTIES LLC</name><description>Parcel: 23 00 31 4 009 002.001
Address: 923 28TH ST S</description><Point><coordinates>-86.786503,33.509009,0</coordinates></Point></Placemark><Placemark><name>39 HANOVER PARTNERS LLC</name><description>Parcel: 23 00 31 4 022 001.000
Address: 39 HANOVER CIR</description><Point><coordinates>-86.7867354,33.5059273,0</coordinates></Point></Placemark><Placemark><name>BARNETT MICHAEL DAVID</name><description>Parcel: 23 00 31 4 022 002.366
Address: 57 HANOVER CIR</description><Point><coordinates>-86.7876311,33.5054894,0</coordinates></Point></Placemark><Placemark><name>FMP-SOUTHERN COURT/SOUTHERS LL</name><description>Parcel: 23 00 31 4 024 006.000
Address: 2811 11TH AVE S</description><Point><coordinates>-86.7845627,33.5065346,0</coordinates></Point></Placemark><Placemark><name>FARRIS 2816 13TH AVENUE LLC</name><description>Parcel: 28 00 06 1 003 006.000
Address: 2816 13TH AVE S</description><Point><coordinates>-86.7818854,33.5037306,0</coordinates></Point></Placemark><Placemark><name>REDHEADED LLC THE</name><description>Parcel: 28 00 06 1 011 001.331
Address: 2717 HIGHLAND AVE S</description><Point><coordinates>-86.7902691,33.5008986,0</coordinates></Point></Placemark><Placemark><name>WADE JAMES LAWSON</name><description>Parcel: 28 00 06 1 011 007.307
Address: 2727 HIGHLAND AVE S</description><Point><coordinates>-86.7931632,33.4999458,0</coordinates></Point></Placemark><Placemark><name>LAFERRY GEORGE D &amp; DOROTHY A</name><description>Parcel: 28 00 06 1 012 010.312
Address: 1330 28TH ST S</description><Point><coordinates>-86.78186,33.502915,0</coordinates></Point></Placemark><Placemark><name>CITIZENS BANK</name><description>Parcel: 28 00 06 1 015 001.318
Address: 2900 REDMONT PARK CIR</description><Point><coordinates>-86.780242,33.502532,0</coordinates></Point></Placemark><Placemark><name>STARLIT ENTERPRISES LLC</name><description>Parcel: 28 00 06 1 015 004.001
Address: 2711 NIAZUMA AVE S</description><Point><coordinates>-86.783625,33.5024585,0</coordinates></Point></Placemark><Placemark><name>TRIGG JACK W JR</name><description>Parcel: 28 00 06 1 019 036.303
Address: 2700 ARLINGTON AVE</description><Point><coordinates>-86.7841533,33.4995534,0</coordinates></Point></Placemark><Placemark><name>ROGERS BRUCE F. &amp; KIM J.</name><description>Parcel: 28 00 06 1 019 036.318
Address: 2700 ARLINGTON AVE</description><Point><coordinates>-86.7841533,33.4995534,0</coordinates></Point></Placemark><Placemark><name>JORDAN ANASTASIA AGRIPPA (R/S)</name><description>Parcel: 28 00 06 1 024 012.000
Address: 2513 ARLINGTON CRES</description><Point><coordinates>-86.7856154,33.4986205,0</coordinates></Point></Placemark><Placemark><name>ARLINGTON AVENUE PARTNERS II LLC</name><description>Parcel: 28 00 06 1 025 003.000
Address: 2419 ARLINGTON AVE</description><Point><coordinates>-86.786345,33.499292,0</coordinates></Point></Placemark><Placemark><name>WYNNE CAPITAL/2401 ARLINGTON L</name><description>Parcel: 28 00 06 1 025 004.000
Address: 2413 ARLINGTON AVE</description><Point><coordinates>-86.7867875,33.499397,0</coordinates></Point></Placemark><Placemark><name>WHITWORTH RICKEY L</name><description>Parcel: 28 00 06 2 004 020.000
Address: 2316 10TH CT S</description><Point><coordinates>-86.791187,33.504326,0</coordinates></Point></Placemark><Placemark><name>CHOAM LLC</name><description>Parcel: 28 00 06 2 005 007.000
Address: 2309 10TH CT S</description><Point><coordinates>-86.7912756,33.503856,0</coordinates></Point></Placemark><Placemark><name>KENNEDY DEV PROPERTIES INC</name><description>Parcel: 28 00 06 3 002 004.000
Address: 2200 15TH AVE S</description><Point><coordinates>-86.7991263,33.4939161,0</coordinates></Point></Placemark><Placemark><name>DYER &amp; COOK INVESTMENTS LLC</name><description>Parcel: 28 00 06 3 021 005.307
Address: 1901 16TH AVE S</description><Point><coordinates>-86.7942656,33.494772,0</coordinates></Point></Placemark><Placemark><name>TIMOTHY A. SMITH</name><description>Parcel: 28 00 06 4 006 004.309
Address: 2403 ARLINGTON CRES</description><Point><coordinates>-86.7864193,33.4980224,0</coordinates></Point></Placemark><Placemark><name>STONE 11TH STREET LLC</name><description>Parcel: 29 00 01 1 029 002.000
Address: 1008 17TH ST S</description><Point><coordinates>-86.8013534,33.4996278,0</coordinates></Point></Placemark><Placemark><name>WILLIAMS EDWINA WARE</name><description>Parcel: 29 00 01 3 013 020.000
Address: 1110 11TH ST S</description><Point><coordinates>-86.8107666,33.4946454,0</coordinates></Point></Placemark><Placemark><name>SEIBELS FRANCES ESTES</name><description>Parcel: 29 00 01 3 018 012.000
Address: 1435 11TH PL S</description><Point><coordinates>-86.8091553,33.4926247,0</coordinates></Point></Placemark><Placemark><name>GS HOLDINGS LLC</name><description>Parcel: 29 00 01 3 020 005.000
Address: 1421 13TH ST S</description><Point><coordinates>-86.805512,33.4932648,0</coordinates></Point></Placemark><Placemark><name>1722 TOWN HOUSE LLC</name><description>Parcel: 29 00 01 4 003 016.005
Address: 1722 13TH CT S</description><Point><coordinates>-86.7979162,33.4963274,0</coordinates></Point></Placemark><Placemark><name>LIN &amp; DONG PROPERTY LLC</name><description>Parcel: 29 00 01 4 006 003.012
Address: 1725 14TH CT S</description><Point><coordinates>-86.7977796,33.4948263,0</coordinates></Point></Placemark><Placemark><name>VICTORIA SQUARE CONDO OWNERS</name><description>Parcel: 29 00 01 4 010 022.001
Address: 1580 16TH AVE S</description><Point><coordinates>-86.8002919,33.4920559,0</coordinates></Point></Placemark><Placemark><name>SEEBACH AMYE VON</name><description>Parcel: 29 00 01 4 012 008.001
Address: 1317 16TH ST S</description><Point><coordinates>-86.801024,33.495076,0</coordinates></Point></Placemark><Placemark><name>BIRMINGHAM PROPERTY GROUP LLC</name><description>Parcel: 29 00 02 2 018 006.000
Address: 321 DIVISION AVE</description><Point><coordinates>-86.8287484,33.5010054,0</coordinates></Point></Placemark><Placemark><name>BIRMINGHAM PROPERTY GROUP LLC</name><description>Parcel: 29 00 02 2 018 009.000
Address: 3 3RD ST S</description><Point><coordinates>-86.8284251,33.5006793,0</coordinates></Point></Placemark><Placemark><name>BIRMINGHAM PROPERTY GROUP LLC</name><description>Parcel: 29 00 02 2 018 014.000
Address: 318 POWELL AVE</description><Point><coordinates>-86.827973,33.501176,0</coordinates></Point></Placemark><Placemark><name>BIRMINGHAM PROPERTY GROUP LLC</name><description>Parcel: 29 00 02 2 019 002.000
Address: 221 DIVISION CT</description><Point><coordinates>-86.8334535,33.5005499,0</coordinates></Point></Placemark><Placemark><name>BIRMINGHAM PROPERTY GROUP LLC</name><description>Parcel: 29 00 02 2 019 004.000
Address: 8 3RD ST S</description><Point><coordinates>-86.8286125,33.5005924,0</coordinates></Point></Placemark><Placemark><name>BIRMINGHAM LAND BANK AUTHORITY</name><description>Parcel: 29 00 02 2 020 002.000
Address: 231 DIVISION CT</description><Point><coordinates>-86.8334423,33.5005537,0</coordinates></Point></Placemark><Placemark><name>BIRMINGHAM PROPERTY GROUP LLC</name><description>Parcel: 29 00 02 2 020 006.000
Address: 108 POWELL AVE</description><Point><coordinates>-86.8306399,33.5002761,0</coordinates></Point></Placemark><Placemark><name>BIRMINGHAM PROPERTY GROUP LLC</name><description>Parcel: 29 00 02 2 020 007.000
Address: 112 POWELL AVE</description><Point><coordinates>-86.8305948,33.5002796,0</coordinates></Point></Placemark><Placemark><name>BIRMINGHAM PROPERTY GROUP LLC</name><description>Parcel: 29 00 02 2 020 007.001
Address: 110 POWELL AVE</description><Point><coordinates>-86.8306173,33.5002778,0</coordinates></Point></Placemark><Placemark><name>BIRMINGHAM PROPERTY GROUP LLC</name><description>Parcel: 29 00 02 2 020 008.001
Address: 124 POWELL AVE</description><Point><coordinates>-86.8304596,33.5002902,0</coordinates></Point></Placemark><Placemark><name>HEDDEN BENJAMIN (R/S)</name><description>Parcel: 29 00 02 2 020 010.000
Address: 200 POWELL AVE</description><Point><coordinates>-86.829318,33.500401,0</coordinates></Point></Placemark><Placemark><name>BIRMINGHAM PROPERTY GROUP LLC</name><description>Parcel: 29 00 02 2 020 011.000
Address: 204 POWELL AVE</description><Point><coordinates>-86.829288,33.500402,0</coordinates></Point></Placemark><Placemark><name>BIRMINGHAM PROPERTY GROUP LLC</name><description>Parcel: 29 00 02 2 020 013.000
Address: 212 POWELL AVE</description><Point><coordinates>-86.8292279,33.5004039,0</coordinates></Point></Placemark><Placemark><name>BIRMINGHAM PROPERTY GROUP LLC</name><description>Parcel: 29 00 02 2 020 017.000
Address: 12 3RD ST S</description><Point><coordinates>-86.8285927,33.5005503,0</coordinates></Point></Placemark><Placemark><name>BIRMINGHAM PROPERTY GROUP LLC</name><description>Parcel: 29 00 02 2 021 003.000
Address: 209 POWELL AVE</description><Point><coordinates>-86.8292474,33.5002355,0</coordinates></Point></Placemark><Placemark><name>BIRMINGHAM PROPERTY GROUP LLC</name><description>Parcel: 29 00 02 2 021 008.000
Address: 111 POWELL AVE</description><Point><coordinates>-86.8301808,33.5000921,0</coordinates></Point></Placemark><Placemark><name>SALAZAR SILVA NINSI LISSETT</name><description>Parcel: 29 00 02 2 021 020.000
Address: 118 KAPPA AVE</description><Point><coordinates>-86.8300316,33.4995646,0</coordinates></Point></Placemark><Placemark><name>TIPTON MILLIE</name><description>Parcel: 29 00 02 2 021 023.000
Address: 124 KAPPA AVE</description><Point><coordinates>-86.829782,33.4995845,0</coordinates></Point></Placemark><Placemark><name>ESCALANTE OGLER</name><description>Parcel: 29 00 02 2 021 028.000
Address: 204 KAPPA AVE</description><Point><coordinates>-86.8292508,33.4995685,0</coordinates></Point></Placemark><Placemark><name>ENTREPRENEUR EMPOWERMENT LLC</name><description>Parcel: 29 00 02 2 021 031.000
Address: 212 KAPPA AVE</description><Point><coordinates>-86.8288705,33.4995441,0</coordinates></Point></Placemark><Placemark><name>RADFORD WILLA</name><description>Parcel: 29 00 02 2 022 001.000
Address: 32 3RD PL S</description><Point><coordinates>-86.8279274,33.5008839,0</coordinates></Point></Placemark><Placemark><name>BIRMINGHAM PROPERTY GROUP LLC</name><description>Parcel: 29 00 02 2 022 002.000
Address: 307 POWELL AVE</description><Point><coordinates>-86.8283482,33.5009946,0</coordinates></Point></Placemark><Placemark><name>BIRMINGHAM PROPERTY GROUP LLC</name><description>Parcel: 29 00 02 2 022 003.000
Address: 29 3RD ST S</description><Point><coordinates>-86.8286177,33.5006089,0</coordinates></Point></Placemark><Placemark><name>BIRMINGHAM PROPERTY GROUP LLC</name><description>Parcel: 29 00 02 2 022 007.000
Address: 45 3RD ST S</description><Point><coordinates>-86.8282774,33.5002336,0</coordinates></Point></Placemark><Placemark><name>BIRMINGHAM PROPERTY GROUP LLC</name><description>Parcel: 29 00 02 2 022 009.000
Address: 49 3RD ST S</description><Point><coordinates>-86.8282788,33.5002143,0</coordinates></Point></Placemark><Placemark><name>BIRMINGHAM PROPERTY GROUP LLC</name><description>Parcel: 29 00 02 2 022 012.000
Address: 55 3RD ST S</description><Point><coordinates>-86.8285985,33.5005626,0</coordinates></Point></Placemark><Placemark><name>BIRMINGHAM PROPERTY GROUP LLC</name><description>Parcel: 29 00 02 2 022 013.000
Address: 57 3RD ST S</description><Point><coordinates>-86.8285968,33.500559,0</coordinates></Point></Placemark><Placemark><name>GARNER MARIE L &amp; HENRY PATTON</name><description>Parcel: 29 00 02 2 022 015.000
Address: 312 IOTA AVE</description><Point><coordinates>-86.8276828,33.4998465,0</coordinates></Point></Placemark><Placemark><name>KENNEDY DEV PROPERTIES INC</name><description>Parcel: 29 00 02 2 022 024.000
Address: 345 THETA AVE S</description><Point><coordinates>-86.8271312,33.5005852,0</coordinates></Point></Placemark><Placemark><name>WHITE VIRGINIA M</name><description>Parcel: 29 00 02 2 022 025.000
Address: 341 THETA AVE S</description><Point><coordinates>-86.8271797,33.5005877,0</coordinates></Point></Placemark><Placemark><name>JARED MILLER</name><description>Parcel: 29 00 02 2 023 009.000
Address: 40 OMEGA ST</description><Point><coordinates>-86.8264558,33.5015217,0</coordinates></Point></Placemark><Placemark><name>BIRMINGHAM PROPERTY GROUP LLC</name><description>Parcel: 29 00 02 2 024 012.000
Address: 413 THETA AVE S</description><Point><coordinates>-86.8258131,33.5005117,0</coordinates></Point></Placemark><Placemark><name>WILLIAMS MARGARET I (R/S)</name><description>Parcel: 29 00 02 2 024 016.000
Address: 107 OMEGA ST</description><Point><coordinates>-86.8262686,33.5003284,0</coordinates></Point></Placemark><Placemark><name>JAMES RAYMOND</name><description>Parcel: 29 00 02 2 024 017.000
Address: 109 OMEGA ST</description><Point><coordinates>-86.8262319,33.5004818,0</coordinates></Point></Placemark><Placemark><name>BIRMINGHAM PROPERTY GROUP LLC (R/S)</name><description>Parcel: 29 00 02 2 024 021.000
Address: 412 IOTA AVE</description><Point><coordinates>-86.8257718,33.4997189,0</coordinates></Point></Placemark><Placemark><name>BIRMINGHAM PROPERTY GROUP LLC</name><description>Parcel: 29 00 02 2 025 019.000
Address: 421 IOTA AVE</description><Point><coordinates>-86.8254613,33.49954,0</coordinates></Point></Placemark><Placemark><name>BIRMINGHAM PROPERTY GROUP LLC (R/S)</name><description>Parcel: 29 00 02 2 025 020.000
Address: 417 IOTA AVE</description><Point><coordinates>-86.8256083,33.4995468,0</coordinates></Point></Placemark><Placemark><name>WITT EDWARD E. JR</name><description>Parcel: 29 00 02 2 025 039.000
Address: 452 KAPPA AVE</description><Point><coordinates>-86.8240612,33.498948,0</coordinates></Point></Placemark><Placemark><name>BIRMINGHAM PROPERTY GROUP LLC</name><description>Parcel: 29 00 02 2 026 010.000
Address: 306 KAPPA AVE</description><Point><coordinates>-86.8276593,33.4989781,0</coordinates></Point></Placemark><Placemark><name>GREEN JOSEPHINE</name><description>Parcel: 29 00 02 2 027 008.000
Address: 100 3RD PL S</description><Point><coordinates>-86.827964,33.499647,0</coordinates></Point></Placemark><Placemark><name>BIRMINGHAM PROPERTY GROUP LLC</name><description>Parcel: 29 00 02 2 028 003.000
Address: 213 KAPPA AVE</description><Point><coordinates>-86.8292547,33.4993284,0</coordinates></Point></Placemark><Placemark><name>ARJUN</name><description>Parcel: 29 00 02 2 028 004.000
Address: 209 KAPPA AVE</description><Point><coordinates>-86.8292858,33.4993289,0</coordinates></Point></Placemark><Placemark><name>HICKS OLLIE</name><description>Parcel: 29 00 02 2 028 006.000
Address: 201 KAPPA AVE</description><Point><coordinates>-86.829413,33.4992651,0</coordinates></Point></Placemark><Placemark><name>HORN STEPHANIE MICHELLE</name><description>Parcel: 29 00 02 2 029 003.000
Address: 111 KAPPA AVE</description><Point><coordinates>-86.8303365,33.4993494,0</coordinates></Point></Placemark><Placemark><name>WHETSTONE TROY</name><description>Parcel: 29 00 02 3 001 014.000
Address: 422 6TH AVE S</description><Point><coordinates>-86.8228375,33.4965543,0</coordinates></Point></Placemark><Placemark><name>TAYLOR PATRICIA</name><description>Parcel: 29 00 02 3 001 020.000
Address: 520 ALPHA ST</description><Point><coordinates>-86.8223675,33.4974978,0</coordinates></Point></Placemark><Placemark><name>PERRY MICHAEL</name><description>Parcel: 29 00 02 3 001 022.000
Address: 512 ALPHA ST</description><Point><coordinates>-86.8223679,33.4975629,0</coordinates></Point></Placemark><Placemark><name>BIRMINGHAM PROPERTY GROUP LLC</name><description>Parcel: 29 00 02 3 001 027.000
Address: 400 ALPHA ST</description><Point><coordinates>-86.822241,33.498388,0</coordinates></Point></Placemark><Placemark><name>BIRMINGHAM PROPERTY GROUP LLC</name><description>Parcel: 29 00 02 3 003 005.000
Address: 420 4TH AVE S</description><Point><coordinates>-86.8259357,33.497477,0</coordinates></Point></Placemark><Placemark><name>HEARTH &amp; HOME INVESTMENTS LLC</name><description>Parcel: 29 00 02 3 004 005.000
Address: 411 KAPPA AVE</description><Point><coordinates>-86.8259853,33.4989329,0</coordinates></Point></Placemark><Placemark><name>HARTON CHRISTOPHER</name><description>Parcel: 29 00 02 3 004 008.000
Address: 407 KAPPA AVE</description><Point><coordinates>-86.8260536,33.4989344,0</coordinates></Point></Placemark><Placemark><name>AMFLOWERS LLC</name><description>Parcel: 29 00 02 3 004 016.000
Address: 329 OMEGA ST</description><Point><coordinates>-86.826142,33.4978794,0</coordinates></Point></Placemark><Placemark><name>BIRMINGHAM PROPERTY GROUP LLC</name><description>Parcel: 29 00 02 3 004 024.000
Address: 328 DELTA ST</description><Point><coordinates>-86.8253564,33.4983627,0</coordinates></Point></Placemark><Placemark><name>GATER STEPHAN</name><description>Parcel: 29 00 02 3 005 003.000
Address: 305 3RD AVE S</description><Point><coordinates>-86.8272512,33.4982107,0</coordinates></Point></Placemark><Placemark><name>REED MIESSHA (R/S)</name><description>Parcel: 29 00 02 3 005 007.000
Address: 321 3RD ST S</description><Point><coordinates>-86.8269949,33.4976521,0</coordinates></Point></Placemark><Placemark><name>OLIVER JIMMY</name><description>Parcel: 29 00 02 3 005 009.000
Address: 304 4TH AVE S</description><Point><coordinates>-86.8267486,33.4974108,0</coordinates></Point></Placemark><Placemark><name>GREGG KEJUAN</name><description>Parcel: 29 00 02 3 005 012.000
Address: 316 OMEGA ST</description><Point><coordinates>-86.826142,33.4979447,0</coordinates></Point></Placemark><Placemark><name>CANTELOW-JETT OCTAVIA R</name><description>Parcel: 29 00 02 3 006 001.000
Address: 207 3RD ST S</description><Point><coordinates>-86.8270942,33.4976325,0</coordinates></Point></Placemark><Placemark><name>BIRMINGHAM PROPERTY GROUP LLC (R/S)</name><description>Parcel: 29 00 02 3 006 001.001
Address: 205 3RD ST S</description><Point><coordinates>-86.8276157,33.4987866,0</coordinates></Point></Placemark><Placemark><name>BIRMINGHAM PROPERTY GROUP LLC</name><description>Parcel: 29 00 02 3 006 003.000
Address: 307 KAPPA AVE</description><Point><coordinates>-86.8276477,33.4989777,0</coordinates></Point></Placemark><Placemark><name>BIRMINGHAM PROPERTY GROUP LLC</name><description>Parcel: 29 00 02 3 006 004.000
Address: 309 KAPPA AVE</description><Point><coordinates>-86.8276244,33.4989771,0</coordinates></Point></Placemark><Placemark><name>FIRST HAND PROPERTY PRESERVATION</name><description>Parcel: 29 00 02 3 007 008.000
Address: 207 2ND AVE S</description><Point><coordinates>-86.8288674,33.4985015,0</coordinates></Point></Placemark><Placemark><name>WALTON RUTH</name><description>Parcel: 29 00 02 3 007 011.000
Address: 205 2ND ST S</description><Point><coordinates>-86.8290437,33.4981734,0</coordinates></Point></Placemark><Placemark><name>MALDONADO JOSE</name><description>Parcel: 29 00 02 3 007 014.000
Address: 208 3RD AVE S</description><Point><coordinates>-86.8285199,33.4979284,0</coordinates></Point></Placemark><Placemark><name>STORY WERTNA G &amp; HAZELRIG DEBRA A</name><description>Parcel: 29 00 02 3 010 001.000
Address: 69 2ND AVE S</description><Point><coordinates>-86.8314598,33.497345,0</coordinates></Point></Placemark><Placemark><name>BIRMINGHAM PROPERTY GROUP LLC</name><description>Parcel: 29 00 02 3 011 002.000
Address: 127 2ND AVE S</description><Point><coordinates>-86.8303455,33.4978966,0</coordinates></Point></Placemark><Placemark><name>MW LLC</name><description>Parcel: 29 00 02 3 011 003.000
Address: 125 2ND AVE S</description><Point><coordinates>-86.8297635,33.4980615,0</coordinates></Point></Placemark><Placemark><name>BIRMINGHAM PROPERTY GROUP LLC</name><description>Parcel: 29 00 02 3 011 005.000
Address: 119 2ND AVE S</description><Point><coordinates>-86.8304361,33.4978521,0</coordinates></Point></Placemark><Placemark><name>BIRMINGHAM PROPERTY GROUP LLC</name><description>Parcel: 29 00 02 3 011 010.000
Address: 106 3RD AVE S</description><Point><coordinates>-86.8300563,33.4970366,0</coordinates></Point></Placemark><Placemark><name>BIRMINGHAM PROPERTY GROUP LLC</name><description>Parcel: 29 00 02 3 011 017.000
Address: 126 3RD AVE S</description><Point><coordinates>-86.8298273,33.4971454,0</coordinates></Point></Placemark><Placemark><name>WILLIAMS ANGELA</name><description>Parcel: 29 00 02 3 012 002.000
Address: 227 3RD AVE S</description><Point><coordinates>-86.8283556,33.4976589,0</coordinates></Point></Placemark><Placemark><name>BIRMINGHAM PROPERTY GROUP LLC</name><description>Parcel: 29 00 02 3 013 002.000
Address: 127 3RD AVE S</description><Point><coordinates>-86.8297303,33.4970024,0</coordinates></Point></Placemark><Placemark><name>BIRMINGHAM PROPERTY GROUP LLC</name><description>Parcel: 29 00 02 3 013 003.000
Address: 117 3RD AVE S</description><Point><coordinates>-86.8291812,33.4971209,0</coordinates></Point></Placemark><Placemark><name>ESCALANTE GUSMAN YENER ROBERTO</name><description>Parcel: 29 00 02 3 013 005.000
Address: 111 3RD AVE S</description><Point><coordinates>-86.8294929,33.4969798,0</coordinates></Point></Placemark><Placemark><name>HRABOWSKI JAMES L</name><description>Parcel: 29 00 02 3 014 006.000
Address: 52 4TH AVE S</description><Point><coordinates>-86.8310102,33.4953852,0</coordinates></Point></Placemark><Placemark><name>BIRMINGHAM PROPERTY GROUP LLC</name><description>Parcel: 29 00 02 3 014 014.000
Address: 304 1ST ST S</description><Point><coordinates>-86.8301989,33.4966957,0</coordinates></Point></Placemark><Placemark><name>BINDER JOE L (R/S)</name><description>Parcel: 29 00 02 3 014 015.000
Address: 300 1ST ST S</description><Point><coordinates>-86.830218,33.496724,0</coordinates></Point></Placemark><Placemark><name>JOHNSON AMANDA</name><description>Parcel: 29 00 02 3 015 001.000
Address: 65 4TH AVE S</description><Point><coordinates>-86.8305696,33.4954044,0</coordinates></Point></Placemark><Placemark><name>MORALES AARON</name><description>Parcel: 29 00 02 3 015 007.000
Address: 41 4TH AVE S</description><Point><coordinates>-86.8312053,33.4951027,0</coordinates></Point></Placemark><Placemark><name>BILLUPS PATRICIA BOWMAN</name><description>Parcel: 29 00 02 3 015 022.000
Address: 420 1ST ST S</description><Point><coordinates>-86.8293683,33.495807,0</coordinates></Point></Placemark><Placemark><name>BILLUPS PATRICIA BOWMAN</name><description>Parcel: 29 00 02 3 015 024.000
Address: 400 1ST ST S</description><Point><coordinates>-86.829601,33.495816,0</coordinates></Point></Placemark><Placemark><name>BIRMINGHAM PROPERTY GROUP LLC</name><description>Parcel: 29 00 02 3 017 012.000
Address: 411 2ND ST S</description><Point><coordinates>-86.8280529,33.4965239,0</coordinates></Point></Placemark><Placemark><name>BIRMINGHAM PROPERTY GROUP LLC</name><description>Parcel: 29 00 02 3 017 014.000
Address: 417 2ND ST S</description><Point><coordinates>-86.8280438,33.4965106,0</coordinates></Point></Placemark><Placemark><name>SMITH LILLIE ESTATE OF &amp; HOWARD MARY ESTATE OF</name><description>Parcel: 29 00 02 3 017 016.000
Address: 206 5TH AVE S</description><Point><coordinates>-86.8274644,33.4958738,0</coordinates></Point></Placemark><Placemark><name>JEMISON JAMERIA</name><description>Parcel: 29 00 02 3 019 010.000
Address: 511 OMEGA ST</description><Point><coordinates>-86.8261381,33.4961625,0</coordinates></Point></Placemark><Placemark><name>BIRMINGHAM PROPERTY GROUP LLC</name><description>Parcel: 29 00 02 3 019 014.000
Address: 519 OMEGA ST</description><Point><coordinates>-86.8261382,33.4960989,0</coordinates></Point></Placemark><Placemark><name>ME AND MY HOUSE, INC</name><description>Parcel: 29 00 02 3 019 019.000
Address: 516 DELTA ST</description><Point><coordinates>-86.8253565,33.496471,0</coordinates></Point></Placemark><Placemark><name>BIRMINGHAM PROPERTY GROUP LLC</name><description>Parcel: 29 00 02 3 021 004.000
Address: 215 5TH AVE S</description><Point><coordinates>-86.827275,33.4957744,0</coordinates></Point></Placemark><Placemark><name>BIRMINGHAM PROPERTY GROUP LLC</name><description>Parcel: 29 00 02 3 021 005.000
Address: 211 5TH AVE S</description><Point><coordinates>-86.8273207,33.4957526,0</coordinates></Point></Placemark><Placemark><name>BIRMMINGHAM PROPERTY GROUP LLC</name><description>Parcel: 29 00 02 3 021 006.000
Address: 209 5TH AVE S</description><Point><coordinates>-86.8273436,33.4957417,0</coordinates></Point></Placemark><Placemark><name>THOMAS MARIAN</name><description>Parcel: 29 00 02 3 021 008.000
Address: 205 5TH AVE S</description><Point><coordinates>-86.8273893,33.4957198,0</coordinates></Point></Placemark><Placemark><name>CARTER GERALDINE</name><description>Parcel: 29 00 02 3 021 010.001
Address: 517 2ND ST S</description><Point><coordinates>-86.827413,33.495584,0</coordinates></Point></Placemark><Placemark><name>BUILD URBAN PROSPERITY</name><description>Parcel: 29 00 02 3 023 011.000
Address: 500 1ST ST S</description><Point><coordinates>-86.828753,33.494567,0</coordinates></Point></Placemark><Placemark><name>DAVID HUBBARD</name><description>Parcel: 29 00 02 3 024 006.000
Address: 12 6TH AVE S</description><Point><coordinates>-86.8303988,33.492966,0</coordinates></Point></Placemark><Placemark><name>GUNN MILDRED F</name><description>Parcel: 29 00 02 3 025 001.000
Address: 29 6TH AVE S</description><Point><coordinates>-86.829813,33.4930544,0</coordinates></Point></Placemark><Placemark><name>WILLIAMS LIONEL T JR AS AGT FOR HEIRS OF WILLIAMS LIONEL T SR</name><description>Parcel: 29 00 02 3 025 007.000
Address: 1 6TH AVE S</description><Point><coordinates>-86.830809,33.492564,0</coordinates></Point></Placemark><Placemark><name>MARK ANTONIO GRIFFIN</name><description>Parcel: 29 00 02 3 026 003.000
Address: 33 7TH AVE S</description><Point><coordinates>-86.8302498,33.4919652,0</coordinates></Point></Placemark><Placemark><name>JUAN CALDERON PADILLA &amp; JESSICA SOSA ROMERO DE PADILLA</name><description>Parcel: 29 00 02 3 026 005.000
Address: 25 7TH AVE S</description><Point><coordinates>-86.8303628,33.4919114,0</coordinates></Point></Placemark><Placemark><name>MALLOY ERMA LUCILLE &amp;</name><description>Parcel: 29 00 02 3 028 004.000
Address: 125 6TH AVE S</description><Point><coordinates>-86.8277515,33.4940331,0</coordinates></Point></Placemark><Placemark><name>DURR CAMILLE AGT OF HEIRS OF ANITA DURR</name><description>Parcel: 29 00 02 3 031 019.000
Address: 717 OMEGA ST</description><Point><coordinates>-86.82565,33.4947164,0</coordinates></Point></Placemark><Placemark><name>ATKINSON CALBERTA O</name><description>Parcel: 29 00 02 3 031 033.000
Address: 228 8TH AVE S</description><Point><coordinates>-86.8255303,33.4922495,0</coordinates></Point></Placemark><Placemark><name>PIONEER DATA GROUP LLC</name><description>Parcel: 29 00 02 3 031 049.000
Address: 630 DELTA ST</description><Point><coordinates>-86.8247311,33.4935385,0</coordinates></Point></Placemark><Placemark><name>SCOTT DIXIE &amp; GLORIA</name><description>Parcel: 29 00 02 3 032 021.000
Address: 723 DELTA ST</description><Point><coordinates>-86.8247311,33.4935385,0</coordinates></Point></Placemark><Placemark><name>HARTON CHRISTOPHER (R/S)</name><description>Parcel: 29 00 02 3 036 007.000
Address: 915 BETA ST</description><Point><coordinates>-86.8227153,33.4929022,0</coordinates></Point></Placemark><Placemark><name>CLAY BEN</name><description>Parcel: 29 00 02 3 041 002.000
Address: 206 16TH AVE S</description><Point><coordinates>-86.8102571,33.4911995,0</coordinates></Point></Placemark><Placemark><name>GREEN THOMAS CHARLES</name><description>Parcel: 29 00 02 4 005 008.000
Address: 431 UNIVERSITY BLVD</description><Point><coordinates>-86.8216863,33.4919535,0</coordinates></Point></Placemark><Placemark><name>MCFARLAND KERRYN</name><description>Parcel: 29 00 02 4 016 005.000
Address: 713 9TH AVE S</description><Point><coordinates>-86.8157649,33.4948693,0</coordinates></Point></Placemark><Placemark><name>SOUTHERN LUXE HOLDINGS LLC</name><description>Parcel: 29 00 02 4 016 008.000
Address: 701 9TH AVE S</description><Point><coordinates>-86.815902,33.494804,0</coordinates></Point></Placemark><Placemark><name>RODEN DANIEL</name><description>Parcel: 29 00 03 1 030 004.000
Address: 13 1ST PL S</description><Point><coordinates>-86.8312554,33.4998197,0</coordinates></Point></Placemark><Placemark><name>BIRMINGHAM PROPERTY GROUP LLC</name><description>Parcel: 29 00 03 1 030 005.000
Address: 17 1ST PL S</description><Point><coordinates>-86.831394,33.4999668,0</coordinates></Point></Placemark><Placemark><name>BIRMINGHAM PROPERTY GROUP LLC</name><description>Parcel: 29 00 03 1 030 006.001
Address: 25 1ST PL S</description><Point><coordinates>-86.8313945,33.4998748,0</coordinates></Point></Placemark><Placemark><name>HICKS BEN JR</name><description>Parcel: 29 00 03 1 031 008.000
Address: 56 KAPPA AVE</description><Point><coordinates>-86.8322535,33.4990891,0</coordinates></Point></Placemark><Placemark><name>BRASFIELD ARMOND &amp; KATINA</name><description>Parcel: 29 00 03 1 031 010.000
Address: 64 KAPPA AVE</description><Point><coordinates>-86.831918,33.49908,0</coordinates></Point></Placemark><Placemark><name>BIRMINGHAM PROPERTY GROUP LLC</name><description>Parcel: 29 00 03 1 031 013.000
Address: 20 1ST PL S</description><Point><coordinates>-86.8315911,33.4999405,0</coordinates></Point></Placemark><Placemark><name>BRASFIELD ARMOND &amp; TATE- BRASFIELD KATINA</name><description>Parcel: 29 00 03 4 001 009.000
Address: 58 1ST AVE S</description><Point><coordinates>-86.8318345,33.4985932,0</coordinates></Point></Placemark><Placemark><name>OBRAY CARTER</name><description>Parcel: 29 00 03 4 003 001.000
Address: 27 CENTER PL SW</description><Point><coordinates>-86.8318794,33.4879936,0</coordinates></Point></Placemark><Placemark><name>BIRMINGHAM PROPERTY GROUP LLC</name><description>Parcel: 29 00 03 4 012 008.000
Address: 11 1ST AVE S</description><Point><coordinates>-86.8334468,33.4976674,0</coordinates></Point></Placemark><Placemark><name>BIRMINGHAM PROPERTY GROUP LLC</name><description>Parcel: 29 00 03 4 012 017.000
Address: 20 2ND AVE S</description><Point><coordinates>-86.8329253,33.4968403,0</coordinates></Point></Placemark><Placemark><name>PATEL NIRAV</name><description>Parcel: 29 00 03 4 013 017.000
Address: 60 2ND AVE S</description><Point><coordinates>-86.8314242,33.4977248,0</coordinates></Point></Placemark><Placemark><name>ETERNITY &amp; INFINITY INVESTMENTS LLC</name><description>Parcel: 29 00 03 4 013 019.000
Address: 118 1ST ST S</description><Point><coordinates>-86.8313958,33.4984857,0</coordinates></Point></Placemark><Placemark><name>BIRMINGHAM PROPERTY GROUP LLC</name><description>Parcel: 29 00 03 4 015 003.000
Address: 61 2ND AVE S</description><Point><coordinates>-86.8316131,33.4972734,0</coordinates></Point></Placemark><Placemark><name>BIRMINGHAM PROPERTY GROUP LLC</name><description>Parcel: 29 00 03 4 015 007.000
Address: 45 2ND AVE S</description><Point><coordinates>-86.8317438,33.4971362,0</coordinates></Point></Placemark><Placemark><name>WILLIAMS DEARMOND J</name><description>Parcel: 29 00 03 4 016 013.000
Address: 28 3RD AVE S</description><Point><coordinates>-86.8321478,33.4961511,0</coordinates></Point></Placemark><Placemark><name>CARR FAYE (R/S)</name><description>Parcel: 29 00 03 4 021 026.000
Address: 36 4TH AVE S</description><Point><coordinates>-86.8310272,33.4955088,0</coordinates></Point></Placemark><Placemark><name>GONZALES FREDY ROJAS</name><description>Parcel: 29 00 03 4 022 009.000
Address: 9 4TH AVE S</description><Point><coordinates>-86.8320531,33.4947005,0</coordinates></Point></Placemark><Placemark><name>KENNEDY DEV PROPERTIES INC</name><description>Parcel: 29 00 03 4 022 021.000
Address: 18 5TH AVE S</description><Point><coordinates>-86.8166758,33.5009146,0</coordinates></Point></Placemark><Placemark><name>BIRMINGHAM PROPERTY GROUP LLC</name><description>Parcel: 29 00 03 4 026 006.000
Address: 507 CENTER ST S</description><Point><coordinates>-86.8316807,33.4936113,0</coordinates></Point></Placemark><Placemark><name>ROBERTS FOOD SERVICES LL</name><description>Parcel: 29 00 03 4 027 004.000
Address: 527 CENTER ST S</description><Point><coordinates>-86.8315717,33.4931214,0</coordinates></Point></Placemark><Placemark><name>GAIZA CASAS 4 LLC</name><description>Parcel: 29 00 11 1 003 014.001
Address: 448 GREEN SPRINGS AVE S</description><Point><coordinates>-86.8175439,33.484965,0</coordinates></Point></Placemark><Placemark><name>GADSON MARY JANE EST OF</name><description>Parcel: 29 00 11 2 005 003.000
Address: 55 16TH AVE S</description><Point><coordinates>-86.8279251,33.4915116,0</coordinates></Point></Placemark><Placemark><name>ALVAREZ,SERGIO</name><description>Parcel: 29 00 11 2 005 013.000
Address: 46 17TH AVE S</description><Point><coordinates>-86.8279907,33.4907729,0</coordinates></Point></Placemark><Placemark><name>CLAYTON RONALD JR</name><description>Parcel: 29 00 11 2 005 025.001
Address: 1604 1ST ST S</description><Point><coordinates>-86.8266788,33.4913899,0</coordinates></Point></Placemark><Placemark><name>TAYLOR LEAFUS E</name><description>Parcel: 29 00 11 2 006 006.000
Address: 11 16TH AVE S</description><Point><coordinates>-86.830089,33.49156,0</coordinates></Point></Placemark><Placemark><name>SUNRISE HOME BUSINESS</name><description>Parcel: 29 00 11 2 007 010.000
Address: 1705 CENTER ST S</description><Point><coordinates>-86.8307704,33.4905092,0</coordinates></Point></Placemark><Placemark><name>COLLARD CORY</name><description>Parcel: 29 00 11 2 007 012.000
Address: 1711 CENTER ST S</description><Point><coordinates>-86.8307695,33.490325,0</coordinates></Point></Placemark><Placemark><name>BAILEY DEANDRE &amp; ANGEL &amp; JASMINE &amp; DESTINY</name><description>Parcel: 29 00 11 2 008 003.000
Address: 57 17TH AVE S</description><Point><coordinates>-86.827765,33.4906041,0</coordinates></Point></Placemark><Placemark><name>SINCLAIR PROPERTIES</name><description>Parcel: 29 00 11 2 008 016.000
Address: 1723 CENTER WAY S</description><Point><coordinates>-86.82859,33.48996,0</coordinates></Point></Placemark><Placemark><name>MICHAEL KARIITHI M</name><description>Parcel: 29 00 11 2 009 020.000
Address: 1734 1ST PL S</description><Point><coordinates>-86.8256173,33.4898124,0</coordinates></Point></Placemark><Placemark><name>HAWKINS DINKY &amp; RACHEL</name><description>Parcel: 29 00 11 2 010 006.000
Address: 1717 1ST PL S</description><Point><coordinates>-86.825522,33.4902811,0</coordinates></Point></Placemark><Placemark><name>SMITH YAVAH ALLEN III</name><description>Parcel: 29 00 11 2 010 010.000
Address: 1731 1ST PL S</description><Point><coordinates>-86.8255211,33.4900572,0</coordinates></Point></Placemark><Placemark><name>PEGERO KARI (R/S)</name><description>Parcel: 29 00 11 2 010 012.000
Address: 1737 1ST PL S</description><Point><coordinates>-86.8255202,33.4899613,0</coordinates></Point></Placemark><Placemark><name>SEYMORE ERIK K</name><description>Parcel: 29 00 11 2 011 006.000
Address: 1713 2ND ST S</description><Point><coordinates>-86.8246131,33.4903157,0</coordinates></Point></Placemark><Placemark><name>LOMAX KADEEM AGT FOR HEIRS OF MILLER BARBARA L</name><description>Parcel: 29 00 11 2 011 007.000
Address: 1715 2ND ST S</description><Point><coordinates>-86.8246126,33.4902789,0</coordinates></Point></Placemark><Placemark><name>JAMES S IRWIN JR</name><description>Parcel: 29 00 11 2 015 004.000
Address: 1745 CENTER ST S</description><Point><coordinates>-86.8307664,33.4895753,0</coordinates></Point></Placemark><Placemark><name>MONAGO NDUBISI C</name><description>Parcel: 29 00 11 2 015 008.000
Address: 1742 CENTER PL S</description><Point><coordinates>-86.8298673,33.489446,0</coordinates></Point></Placemark><Placemark><name>SANDERS EARL R</name><description>Parcel: 29 00 11 2 017 014.000
Address: 1808 CENTER WAY S</description><Point><coordinates>-86.8287718,33.4887215,0</coordinates></Point></Placemark><Placemark><name>DWELL IN ATLANTA LLC</name><description>Parcel: 29 00 11 2 018 011.000
Address: 1807 CENTER WAY S</description><Point><coordinates>-86.8285745,33.4886123,0</coordinates></Point></Placemark><Placemark><name>IRWIN JAMES S JR</name><description>Parcel: 29 00 11 2 018 017.000
Address: 54 18TH CT S</description><Point><coordinates>-86.8277725,33.4880533,0</coordinates></Point></Placemark><Placemark><name>MILLER JOE EST OF</name><description>Parcel: 29 00 11 2 021 005.000
Address: 105 18TH CT S</description><Point><coordinates>-86.826299,33.4879426,0</coordinates></Point></Placemark><Placemark><name>MILLER MAXIE SR AS AGENT FOR</name><description>Parcel: 29 00 11 2 021 007.000
Address: 1827 1ST ST S</description><Point><coordinates>-86.8264241,33.487866,0</coordinates></Point></Placemark><Placemark><name>DWELL IN ATLANTA LLC</name><description>Parcel: 29 00 11 2 022 010.000
Address: 1833 CENTER WAY S</description><Point><coordinates>-86.8285745,33.4878288,0</coordinates></Point></Placemark><Placemark><name>BATLEY JERRY O</name><description>Parcel: 29 00 11 2 022 012.000
Address: 48 19TH AVE S</description><Point><coordinates>-86.8276392,33.487277,0</coordinates></Point></Placemark><Placemark><name>JAR HOLDING COMPANY, LLC</name><description>Parcel: 29 00 11 2 022 018.000
Address: 62 19TH AVE S</description><Point><coordinates>-86.8273681,33.4872703,0</coordinates></Point></Placemark><Placemark><name>JAR HOLDING COMPANY, LLC</name><description>Parcel: 29 00 11 2 022 019.000
Address: 1840 1ST ST S</description><Point><coordinates>-86.8266211,33.4878633,0</coordinates></Point></Placemark><Placemark><name>JAR HOLDING COMPANY, LLC</name><description>Parcel: 29 00 11 2 022 020.000
Address: 1838 1ST ST S</description><Point><coordinates>-86.8266211,33.4878639,0</coordinates></Point></Placemark><Placemark><name>JAR HOLDING COMPANY, LLC</name><description>Parcel: 29 00 11 2 023 002.000
Address: 57 19TH AVE S</description><Point><coordinates>-86.8274727,33.4871077,0</coordinates></Point></Placemark><Placemark><name>E&amp;J PROPERTIES LLC</name><description>Parcel: 29 00 11 2 023 005.000
Address: 1901 CENTER WAY S</description><Point><coordinates>-86.828608,33.487084,0</coordinates></Point></Placemark><Placemark><name>SALDANA LINDA MALENY CASTILLO</name><description>Parcel: 29 00 11 2 026 018.000
Address: 2031 CENTER WAY S</description><Point><coordinates>-86.8293357,33.4850998,0</coordinates></Point></Placemark><Placemark><name>SKYBLUE WHOLESALE PROPERTIES LLC</name><description>Parcel: 29 00 11 2 027 005.000
Address: 2007 HOLLINS DR</description><Point><coordinates>-86.8278147,33.4856269,0</coordinates></Point></Placemark><Placemark><name>KENNEDY DEV PROPERTIES INC</name><description>Parcel: 29 00 11 3 003 002.000
Address: 129 22ND AVE S</description><Point><coordinates>-86.8248329,33.4832451,0</coordinates></Point></Placemark><Placemark><name>PEREZ BEATRIZ ADRIANA &amp; JIMENEZ RENATO RAMIREZ</name><description>Parcel: 29 00 11 3 004 004.000
Address: 2249 1ST PL S</description><Point><coordinates>-86.8259645,33.4821934,0</coordinates></Point></Placemark><Placemark><name>NELSON PAZ PROPERTIES LLC</name><description>Parcel: 29 00 11 3 004 012.000
Address: 2240 2ND ST S</description><Point><coordinates>-86.8251797,33.4819979,0</coordinates></Point></Placemark><Placemark><name>HEARD JOHN &amp; MIA</name><description>Parcel: 29 00 11 3 010 003.000
Address: 2253 RED MOUNTAIN TER</description><Point><coordinates>-86.8231819,33.4781982,0</coordinates></Point></Placemark><Placemark><name>HAMPTON MARK W AGT OF HEIRS</name><description>Parcel: 29 00 11 3 012 009.000
Address: 2051 HOLLINS DR</description><Point><coordinates>-86.8297849,33.4837158,0</coordinates></Point></Placemark><Placemark><name>EBERT INVESTMENTS LLC</name><description>Parcel: 29 00 11 3 012 020.000
Address: 16 GREEN SPRINGS AVE S</description><Point><coordinates>-86.8280162,33.4828896,0</coordinates></Point></Placemark><Placemark><name>ZAMORA ARTURO EDUARDO SOTO</name><description>Parcel: 29 00 11 3 021 011.000
Address: 2321 1ST ST S</description><Point><coordinates>-86.8286789,33.4793922,0</coordinates></Point></Placemark><Placemark><name>TERRAZAS ALEXANDRO (R/S)</name><description>Parcel: 29 00 11 3 021 017.000
Address: 2345 1ST ST S</description><Point><coordinates>-86.8286783,33.4788174,0</coordinates></Point></Placemark><Placemark><name>SANCHEZ KRISTHOFER</name><description>Parcel: 29 00 11 3 024 010.000
Address: 2360 CENTER PL S</description><Point><coordinates>-86.8305122,33.4782726,0</coordinates></Point></Placemark><Placemark><name>GREEN LAND REALTY LLC</name><description>Parcel: 29 00 11 4 010 003.000
Address: 2105 JOYCE ST</description><Point><coordinates>-86.8228312,33.4810897,0</coordinates></Point></Placemark><Placemark><name>ALABAMA PROPERTY BUYER LLC</name><description>Parcel: 29 00 12 2 004 022.000
Address: 1606 CULLOM ST S</description><Point><coordinates>-86.8081955,33.4904167,0</coordinates></Point></Placemark></Document></kml>